STARLINK-36742          
1 67907U 26036D   26191.51583170  .00014150  00000+0  52246-3 0  9997
2 67907  43.0054 271.8907 0003544 293.9630  66.0851 15.27594703 22507
STARLINK-36827          
1 67908U 26036E   26190.53118211  .00013253  00000+0  49005-3 0  9991
2 67908  42.9945 277.3863 0000557 197.6797 162.4036 15.27593757 22359
STARLINK-36822          
1 67909U 26036F   26190.26577990  .00010333  00000+0  38437-3 0  9998
2 67909  42.9956 278.8403 0000641 229.0982 130.9814 15.27588096 22318
STARLINK-36847          
1 67910U 26036G   26191.24272064  .00019505  00000+0  71616-3 0  9999
2 67910  42.9995 273.2710 0000889 217.7753 142.3036 15.27593385 22463
STARLINK-36736          
1 67911U 26036H   26191.30167593  .00013419  00000+0  49607-3 0  9990
2 67911  42.9960 272.8351 0001575 198.9064 161.1730 15.27591980 22470
STARLINK-36676          
1 67912U 26036J   26191.55936251  .00020538  00000+0  75254-3 0  9990
2 67912  43.0023 271.3415 0002854 284.4140  75.6395 15.27631527 22518
STARLINK-36690          
1 67913U 26036K   26191.55551228  .00018444  00000+0  67760-3 0  9994
2 67913  43.0011 271.3050 0001698 247.5907 112.4765 15.27603060 22519
STARLINK-36724          
1 67914U 26036L   26191.54517876  .00020192  00000+0  73927-3 0  9990
2 67914  42.9993 271.2269 0005056 158.5281 201.5784 15.27660511 22511
STARLINK-36723          
1 67915U 26036M   26191.68243301  .00008827  00000+0  32988-3 0  9998
2 67915  43.0014 270.5375 0001663 266.5756  93.4905 15.27580585 22532
STARLINK-36721          
1 67916U 26036N   26191.27983037  .00011618  00000+0  43092-3 0  9991
2 67916  42.9899 272.6565 0001901 170.4321 189.6567 15.27587173 22477
STARLINK-36722          
1 67917U 26036P   26191.27598141  .00010714  00000+0  39814-3 0  9993
2 67917  43.0103 272.6456 0004275 282.8677  77.1697 15.27588144 22470
STARLINK-36341          
1 67918U 26036Q   26191.52738789  .00019873  00000+0  72912-3 0  9997
2 67918  42.9779 271.9538 0003670 144.8930 215.2164 15.27603625 22508
STARLINK-36663          
1 67919U 26036R   26191.53368477  .00016332  00000+0  60156-3 0  9996
2 67919  43.0234 271.1569 0003252 288.1318  71.9180 15.27585797 22516
STARLINK-36375          
1 67920U 26036S   26191.52096615  .00018123  00000+0  66597-3 0  9994
2 67920  42.9989 271.9158 0001051 275.6940  84.3792 15.27604702 22506
STARLINK-36405          
1 67921U 26036T   26191.51709361  .00010773  00000+0  39994-3 0  9997
2 67921  42.9992 271.8988 0001343 286.4445  73.6259 15.27620261 22502
STARLINK-36406          
1 67923U 26036V   26191.50940995  .00013662  00000+0  50480-3 0  9991
2 67923  43.0064 271.8537 0003670 297.0640  62.9837 15.27593731 22500
STARLINK-36714          
1 67924U 26036W   26190.26320821  .00013486  00000+0  49830-3 0  9995
2 67924  42.9959 278.8121 0000582 278.1069  81.9716 15.27606686 22312
STARLINK-36726          
1 67925U 26036X   26191.36835283  .00017015  00000+0  62586-3 0  9996
2 67925  43.0041 272.5031 0001344 172.0646 188.0227 15.27608638 22481
STARLINK-36758          
1 67926U 26036Y   26191.69143963  .00013071  00000+0  48345-3 0  9995
2 67926  43.0019 270.6139 0002195   1.3157 358.7700 15.27593989 22531
STARLINK-36728          
1 67927U 26036Z   26191.68371502  .00012324  00000+0  45660-3 0  9994
2 67927  43.0008 270.5435 0002592 229.5472 130.5154 15.27580372 22534
STARLINK-36771          
1 67928U 26036AA  26191.55676580  .00013358  00000+0  49310-3 0  9999
2 67928  43.0018 271.3181 0001478 250.2684 109.8008 15.27643183 22516
STARLINK-36809          
1 67929U 26036AB  26191.54907845  .00019994  00000+0  73283-3 0  9998
2 67929  43.0035 271.2591 0001269 202.4599 157.6197 15.27638781 22510
STARLINK-36865          
1 67930U 26036AC  26191.53880648  .00017169  00000+0  63159-3 0  9993
2 67930  42.9955 271.1636 0001610 205.9055 154.1716 15.27600020 22519
STARLINK-36781          
1 67931U 26036AD  26191.54263682  .00021004  00000+0  76929-3 0  9990
2 67931  43.0061 271.2052 0003063 270.1061  89.9440 15.27635447 22518
STARLINK-36301          
1 67932U 26037A   26191.47137388  .00011521  00000+0  42737-3 0  9990
2 67932  43.0019 217.7417 0001617 268.7529  91.3137 15.27591828 22117
STARLINK-36852          
1 67933U 26037B   26191.46751951  .00011694  00000+0  43353-3 0  9994
2 67933  43.0050 217.7372 0002972 282.1359  77.9160 15.27599711 22114
STARLINK-36861          
1 67934U 26037C   26191.39827399  .00013602  00000+0  50252-3 0  9994
2 67934  42.9977 218.0534 0001042 224.1769 135.9000 15.27604430 22105
STARLINK-36860          
1 67935U 26037D   26191.13287826  .00011990  00000+0  44431-3 0  9992
2 67935  42.9989 219.5121 0000919 201.3159 158.7654 15.27594532 22063
STARLINK-36848          
1 67936U 26037E   26191.12516867  .00009865  00000+0  36745-3 0  9999
2 67936  43.0049 219.4657 0004054 277.3490  82.6901 15.27585442 22061
STARLINK-36370          
1 67937U 26037F   26191.12902133  .00009523  00000+0  35499-3 0  9991
2 67937  43.0024 219.4831 0001117 234.2253 125.8495 15.27594814 22066
