OBJECT_NAME,OBJECT_ID,EPOCH,MEAN_MOTION,ECCENTRICITY,INCLINATION,RA_OF_ASC_NODE,ARG_OF_PERICENTER,MEAN_ANOMALY,EPHEMERIS_TYPE,CLASSIFICATION_TYPE,NORAD_CAT_ID,ELEMENT_SET_NO,REV_AT_EPOCH,BSTAR,MEAN_MOTION_DOT,MEAN_MOTION_DDOT
STARLINK-36742,2026-036D,2026-07-10T12:22:47.858880,15.27594703,.0003544,43.0054,271.8907,293.9630,66.0851,0,U,67907,999,2250,.52246E-3,.1415E-3,0
STARLINK-36827,2026-036E,2026-07-09T12:44:54.134304,15.27593757,.00005572,42.9945,277.3863,197.6797,162.4036,0,U,67908,999,2235,.49005149E-3,.13253E-3,0
STARLINK-36822,2026-036F,2026-07-09T06:22:43.383360,15.27588096,.00006419,42.9956,278.8403,229.0982,130.9814,0,U,67909,999,2231,.38437342E-3,.10333E-3,0
STARLINK-36847,2026-036G,2026-07-10T05:49:31.063296,15.27593385,.00008891,42.9995,273.2710,217.7753,142.3036,0,U,67910,999,2246,.71616141E-3,.19505E-3,0
STARLINK-36736,2026-036H,2026-07-10T07:14:24.800352,15.27591980,.00015752,42.9960,272.8351,198.9064,161.1730,0,U,67911,999,2247,.49607481E-3,.13419E-3,0
STARLINK-36676,2026-036J,2026-07-10T13:25:28.920864,15.27631527,.0002854,43.0023,271.3415,284.4140,75.6395,0,U,67912,999,2251,.75254E-3,.20538E-3,0
STARLINK-36690,2026-036K,2026-07-10T13:19:56.260992,15.27603060,.0001698,43.0011,271.3050,247.5907,112.4765,0,U,67913,999,2251,.6776E-3,.18444E-3,0
STARLINK-36724,2026-036L,2026-07-10T13:05:03.444864,15.27660511,.0005056,42.9993,271.2269,158.5281,201.5784,0,U,67914,999,2251,.73927E-3,.20192E-3,0
STARLINK-36723,2026-036M,2026-07-10T16:22:42.212064,15.27580585,.0001663,43.0014,270.5375,266.5756,93.4905,0,U,67915,999,2253,.32988E-3,.8827E-4,0
STARLINK-36721,2026-036N,2026-07-10T06:42:57.343968,15.27587173,.00019014,42.9899,272.6565,170.4321,189.6567,0,U,67916,999,2247,.43092299E-3,.11618E-3,0
STARLINK-36722,2026-036P,2026-07-10T06:37:24.793824,15.27588144,.00042756,43.0103,272.6456,282.8677,77.1697,0,U,67917,999,2247,.39814289E-3,.10714E-3,0
STARLINK-36341,2026-036Q,2026-07-10T12:39:26.313696,15.27603625,.000367,42.9779,271.9538,144.8930,215.2164,0,U,67918,999,2250,.72912E-3,.19873E-3,0
STARLINK-36663,2026-036R,2026-07-10T12:48:30.364128,15.27585797,.0003252,43.0234,271.1569,288.1318,71.9180,0,U,67919,999,2251,.60156E-3,.16332E-3,0
STARLINK-36375,2026-036S,2026-07-10T12:30:11.475360,15.27604702,.0001051,42.9989,271.9158,275.6940,84.3792,0,U,67920,999,2250,.66597E-3,.18123E-3,0
STARLINK-36405,2026-036T,2026-07-10T12:24:36.887904,15.27620261,.0001343,42.9992,271.8988,286.4445,73.6259,0,U,67921,999,2250,.39994E-3,.10773E-3,0
STARLINK-36406,2026-036V,2026-07-10T12:13:33.019680,15.27593731,.000367,43.0064,271.8537,297.0640,62.9837,0,U,67923,999,2250,.5048E-3,.13662E-3,0
STARLINK-36714,2026-036W,2026-07-09T06:19:01.189344,15.27606686,.00005825,42.9959,278.8121,278.1069,81.9716,0,U,67924,999,2231,.49829699E-3,.13486E-3,0
STARLINK-36726,2026-036X,2026-07-10T08:50:25.684512,15.27608638,.00013442,43.0041,272.5031,172.0646,188.0227,0,U,67925,999,2248,.62585796E-3,.17015E-3,0
STARLINK-36758,2026-036Y,2026-07-10T16:35:40.384032,15.27593989,.0002195,43.0019,270.6139,1.3157,358.7700,0,U,67926,999,2253,.48345E-3,.13071E-3,0
STARLINK-36728,2026-036Z,2026-07-10T16:24:32.977728,15.27580372,.0002592,43.0008,270.5435,229.5472,130.5154,0,U,67927,999,2253,.4566E-3,.12324E-3,0
STARLINK-36771,2026-036AA,2026-07-10T13:21:44.565120,15.27643183,.0001478,43.0018,271.3181,250.2684,109.8008,0,U,67928,999,2251,.4931E-3,.13358E-3,0
STARLINK-36809,2026-036AB,2026-07-10T13:10:40.378080,15.27638781,.0001269,43.0035,271.2591,202.4599,157.6197,0,U,67929,999,2251,.73283E-3,.19994E-3,0
STARLINK-36865,2026-036AC,2026-07-10T12:55:52.879872,15.27600020,.000161,42.9955,271.1636,205.9055,154.1716,0,U,67930,999,2251,.63159E-3,.17169E-3,0
STARLINK-36781,2026-036AD,2026-07-10T13:01:23.821248,15.27635447,.0003063,43.0061,271.2052,270.1061,89.9440,0,U,67931,999,2251,.76929E-3,.21004E-3,0
STARLINK-36301,2026-037A,2026-07-10T11:18:46.703232,15.27591828,.0001617,43.0019,217.7417,268.7529,91.3137,0,U,67932,999,2211,.42737E-3,.11521E-3,0
STARLINK-36852,2026-037B,2026-07-10T11:13:13.685664,15.27599711,.0002972,43.0050,217.7372,282.1359,77.9160,0,U,67933,999,2211,.43353E-3,.11694E-3,0
STARLINK-36861,2026-037C,2026-07-10T09:33:30.872736,15.27604430,.00010425,42.9977,218.0534,224.1769,135.9000,0,U,67934,999,2210,.50251549E-3,.13602E-3,0
STARLINK-36860,2026-037D,2026-07-10T03:11:20.681664,15.27594532,.00009195,42.9989,219.5121,201.3159,158.7654,0,U,67935,999,2206,.44430926E-3,.1199E-3,0
STARLINK-36848,2026-037E,2026-07-10T03:00:14.573088,15.27585442,.00040545,43.0049,219.4657,277.3490,82.6901,0,U,67936,999,2206,.3674539E-3,.9865E-4,0
STARLINK-36370,2026-037F,2026-07-10T03:05:47.442912,15.27594814,.00011178,43.0024,219.4831,234.2253,125.8495,0,U,67937,999,2206,.35498506E-3,.9523E-4,0
